STARLINK-2032
1 17649C 21012AF  21326.12171913  .00008371  00000-0  56087-3 0  3267
2 17649  53.0534 253.1995 0002073  56.8816 253.3729 15.06388328    18
